{
  "type": "FeatureCollection",
  "features": [
    {
      "type": "Feature",
      "properties": {
        "norad_id": 56564,
        "name": "BEIDOU-3 G4 (C62)",
        "group": "beidou",
        "lat": 0.30794952155149835,
        "lon": -35.85193094846876,
        "alt_km": 35796.86043373427,
        "timestamp": "2025-12-09T05:43:20.991269+00:00",
        "meta_object_name": "BEIDOU-3 G4 (C62)",
        "meta_object_id": "2023-066A",
        "meta_epoch": "2025-12-08T19:30:04.457376",
        "meta_mean_motion": 1.00271176,
        "meta_eccentricity": 0.0003042,
        "meta_inclination": 0.8235,
        "meta_ra_of_asc_node": 301.7494,
        "meta_arg_of_pericenter": 235.8944,
        "meta_mean_anomaly": 352.7553,
        "meta_ephemeris_type": 0,
        "meta_classification_type": "U",
        "meta_norad_cat_id": 56564,
        "meta_element_set_no": 999,
        "meta_rev_at_epoch": 948,
        "meta_bstar": 0,
        "meta_mean_motion_dot": -1.09e-06,
        "meta_mean_motion_ddot": 0,
        "tle_line1": "1 56564U 23066A   25342.81255159 -.00000109  00000+0  00000+0 0  9994",
        "tle_line2": "2 56564   0.8235 301.7494 0003042 235.8944 352.7553  1.00271176  9484"
      },
      "geometry": {
        "type": "Point",
        "coordinates": [
          -35.85193094846876,
          0.30794952155149835
        ]
      }
    },
    {
      "type": "Feature",
      "properties": {
        "norad_id": 58654,
        "name": "BEIDOU-3 M28 (C50)",
        "group": "beidou",
        "lat": 12.198630726790107,
        "lon": 77.24140903517647,
        "alt_km": 21528.675813189737,
        "timestamp": "2025-12-09T05:43:20.991281+00:00",
        "meta_object_name": "BEIDOU-3 M28 (C50)",
        "meta_object_id": "2023-207A",
        "meta_epoch": "2025-12-07T14:31:49.044000",
        "meta_mean_motion": 1.86229593,
        "meta_eccentricity": 0.0002234,
        "meta_inclination": 55.5801,
        "meta_ra_of_asc_node": 68.7753,
        "meta_arg_of_pericenter": 268.0478,
        "meta_mean_anomaly": 91.9457,
        "meta_ephemeris_type": 0,
        "meta_classification_type": "U",
        "meta_norad_cat_id": 58654,
        "meta_element_set_no": 999,
        "meta_rev_at_epoch": 1327,
        "meta_bstar": 0,
        "meta_mean_motion_dot": -4.6e-07,
        "meta_mean_motion_ddot": 0,
        "tle_line1": "1 58654U 23207A   25341.60542875 -.00000046  00000+0  00000+0 0  9993",
        "tle_line2": "2 58654  55.5801  68.7753 0002234 268.0478  91.9457  1.86229593 13279"
      },
      "geometry": {
        "type": "Point",
        "coordinates": [
          77.24140903517647,
          12.198630726790107
        ]
      }
    },
    {
      "type": "Feature",
      "properties": {
        "norad_id": 58655,
        "name": "BEIDOU-3 M26 (C48)",
        "group": "beidou",
        "lat": 24.008154838380598,
        "lon": -129.03788057597959,
        "alt_km": 21527.511916828837,
        "timestamp": "2025-12-09T05:43:20.991293+00:00",
        "meta_object_name": "BEIDOU-3 M26 (C48)",
        "meta_object_id": "2023-207B",
        "meta_epoch": "2025-12-08T11:26:54.595392",
        "meta_mean_motion": 1.8623113,
        "meta_eccentricity": 0.00036549,
        "meta_inclination": 55.583,
        "meta_ra_of_asc_node": 68.7321,
        "meta_arg_of_pericenter": 253.8899,
        "meta_mean_anomaly": 106.0912,
        "meta_ephemeris_type": 0,
        "meta_classification_type": "U",
        "meta_norad_cat_id": 58655,
        "meta_element_set_no": 999,
        "meta_rev_at_epoch": 1327,
        "meta_bstar": 0,
        "meta_mean_motion_dot": -4.7e-07,
        "meta_mean_motion_ddot": 0,
        "tle_line1": "1 58655U 23207B   25342.47702078 -.00000047  00000+0  00000+0 0  9994",
        "tle_line2": "2 58655  55.5830  68.7321 0003654 253.8899 106.0912  1.86231130 13273"
      },
      "geometry": {
        "type": "Point",
        "coordinates": [
          -129.03788057597959,
          24.008154838380598
        ]
      }
    },
    {
      "type": "Feature",
      "properties": {
        "norad_id": 61186,
        "name": "BEIDOU-3 M25 (C47)",
        "group": "beidou",
        "lat": -54.56247260138949,
        "lon": -145.67785352413142,
        "alt_km": 21520.627989423323,
        "timestamp": "2025-12-09T05:43:20.991305+00:00",
        "meta_object_name": "BEIDOU-3 M25 (C47)",
        "meta_object_id": "2024-168B",
        "meta_epoch": "2025-12-08T20:08:08.310912",
        "meta_mean_motion": 1.8622988,
        "meta_eccentricity": 0.0005441,
        "meta_inclination": 54.6453,
        "meta_ra_of_asc_node": 308.8544,
        "meta_arg_of_pericenter": 295.846,
        "meta_mean_anomaly": 63.7287,
        "meta_ephemeris_type": 0,
        "meta_classification_type": "U",
        "meta_norad_cat_id": 61186,
        "meta_element_set_no": 999,
        "meta_rev_at_epoch": 823,
        "meta_bstar": 0,
        "meta_mean_motion_dot": -7.5e-07,
        "meta_mean_motion_ddot": 0,
        "tle_line1": "1 61186U 24168B   25342.83898508 -.00000075  00000+0  00000+0 0  9999",
        "tle_line2": "2 61186  54.6453 308.8544 0005441 295.8460  63.7287  1.86229880  8231"
      },
      "geometry": {
        "type": "Point",
        "coordinates": [
          -145.67785352413142,
          -54.56247260138949
        ]
      }
    },
    {
      "type": "Feature",
      "properties": {
        "norad_id": 61187,
        "name": "BEIDOU-3 M27 (C49)",
        "group": "beidou",
        "lat": 33.33932298543115,
        "lon": -23.368269509421573,
        "alt_km": 21521.737049259686,
        "timestamp": "2025-12-09T05:43:20.991316+00:00",
        "meta_object_name": "BEIDOU-3 M27 (C49)",
        "meta_object_id": "2024-168C",
        "meta_epoch": "2025-12-08T15:20:42.241056",
        "meta_mean_motion": 1.86230009,
        "meta_eccentricity": 0.0002317,
        "meta_inclination": 54.641,
        "meta_ra_of_asc_node": 308.845,
        "meta_arg_of_pericenter": 333.6022,
        "meta_mean_anomaly": 27.0867,
        "meta_ephemeris_type": 0,
        "meta_classification_type": "U",
        "meta_norad_cat_id": 61187,
        "meta_element_set_no": 999,
        "meta_rev_at_epoch": 571,
        "meta_bstar": 0,
        "meta_mean_motion_dot": -7.4e-07,
        "meta_mean_motion_ddot": 0,
        "tle_line1": "1 61187U 24168C   25342.63937779 -.00000074  00000+0  00000+0 0  9991",
        "tle_line2": "2 61187  54.6410 308.8450 0002317 333.6022  27.0867  1.86230009  5717"
      },
      "geometry": {
        "type": "Point",
        "coordinates": [
          -23.368269509421573,
          33.33932298543115
        ]
      }
    }
  ]
}